[{"OBJECT_NAME":"ONEWEB-0353","OBJECT_ID":"2021-090D","EPOCH":"2026-06-02T19:47:12.314112","MEAN_MOTION":13.14502367,"ECCENTRICITY":0.0001658,"INCLINATION":87.8955,"RA_OF_ASC_NODE":292.5676,"ARG_OF_PERICENTER":93.2829,"MEAN_ANOMALY":266.849,"EPHEMERIS_TYPE":0,"CLASSIFICATION_TYPE":"U","NORAD_CAT_ID":49282,"ELEMENT_SET_NO":999,"REV_AT_EPOCH":22569,"BSTAR":0.00029298000000000003,"MEAN_MOTION_DOT":1.21e-06,"MEAN_MOTION_DDOT":0.0},{"OBJECT_NAME":"ONEWEB-0356","OBJECT_ID":"2021-090E","EPOCH":"2026-06-02T19:58:49.477440","MEAN_MOTION":13.20772644,"ECCENTRICITY":0.0002471,"INCLINATION":87.9187,"RA_OF_ASC_NODE":277.295,"ARG_OF_PERICENTER":84.2758,"MEAN_ANOMALY":275.8657,"EPHEMERIS_TYPE":0,"CLASSIFICATION_TYPE":"U","NORAD_CAT_ID":49283,"ELEMENT_SET_NO":999,"REV_AT_EPOCH":22793,"BSTAR":9.1681e-05,"MEAN_MOTION_DOT":5e-07,"MEAN_MOTION_DDOT":0.0},{"OBJECT_NAME":"ONEWEB-0358","OBJECT_ID":"2021-090F","EPOCH":"2026-06-02T18:52:07.241088","MEAN_MOTION":13.20769981,"ECCENTRICITY":0.0002147,"INCLINATION":87.9186,"RA_OF_ASC_NODE":277.3087,"ARG_OF_PERICENTER":101.8443,"MEAN_ANOMALY":258.2931,"EPHEMERIS_TYPE":0,"CLASSIFICATION_TYPE":"U","NORAD_CAT_ID":49284,"ELEMENT_SET_NO":999,"REV_AT_EPOCH":22865,"BSTAR":-0.00011433999999999999,"MEAN_MOTION_DOT":-3.4e-07,"MEAN_MOTION_DDOT":0.0},{"OBJECT_NAME":"ONEWEB-0359","OBJECT_ID":"2021-090G","EPOCH":"2026-06-02T18:48:30.908448","MEAN_MOTION":13.2077235,"ECCENTRICITY":0.0002171,"INCLINATION":87.9188,"RA_OF_ASC_NODE":277.3047,"ARG_OF_PERICENTER":104.5158,"MEAN_ANOMALY":255.6216,"EPHEMERIS_TYPE":0,"CLASSIFICATION_TYPE":"U","NORAD_CAT_ID":49285,"ELEMENT_SET_NO":999,"REV_AT_EPOCH":22863,"BSTAR":-0.0002258,"MEAN_MOTION_DOT":-7.9e-07,"MEAN_MOTION_DDOT":0.0},{"OBJECT_NAME":"ONEWEB-0360","OBJECT_ID":"2021-090H","EPOCH":"2026-06-02T18:33:56.829024","MEAN_MOTION":13.20772754,"ECCENTRICITY":0.000202,"INCLINATION":87.9187,"RA_OF_ASC_NODE":277.3131,"ARG_OF_PERICENTER":102.6617,"MEAN_ANOMALY":257.4743,"EPHEMERIS_TYPE":0,"CLASSIFICATION_TYPE":"U","NORAD_CAT_ID":49286,"ELEMENT_SET_NO":999,"REV_AT_EPOCH":22794,"BSTAR":-0.00018271999999999999,"MEAN_MOTION_DOT":-6.1e-07,"MEAN_MOTION_DDOT":0.0},{"OBJECT_NAME":"ONEWEB-0361","OBJECT_ID":"2021-090J","EPOCH":"2026-06-02T19:56:21.933888","MEAN_MOTION":13.20769738,"ECCENTRICITY":0.0002028,"INCLINATION":87.9178,"RA_OF_ASC_NODE":277.3002,"ARG_OF_PERICENTER":91.6954,"MEAN_ANOMALY":268.4411,"EPHEMERIS_TYPE":0,"CLASSIFICATION_TYPE":"U","NORAD_CAT_ID":49287,"ELEMENT_SET_NO":999,"REV_AT_EPOCH":22840,"BSTAR":0.000182,"MEAN_MOTION_DOT":8.7e-07,"MEAN_MOTION_DDOT":0.0},{"OBJECT_NAME":"ONEWEB-0362","OBJECT_ID":"2021-090K","EPOCH":"2026-06-01T11:35:43.419552","MEAN_MOTION":13.19727273,"ECCENTRICITY":0.0001639,"INCLINATION":87.9156,"RA_OF_ASC_NODE":308.1082,"ARG_OF_PERICENTER":102.8338,"MEAN_ANOMALY":257.2978,"EPHEMERIS_TYPE":0,"CLASSIFICATION_TYPE":"U","NORAD_CAT_ID":49288,"ELEMENT_SET_NO":999,"REV_AT_EPOCH":22484,"BSTAR":-3.2564e-05,"MEAN_MOTION_DOT":0.0,"MEAN_MOTION_DDOT":0.0},{"OBJECT_NAME":"ONEWEB-0363","OBJECT_ID":"2021-090L","EPOCH":"2026-06-02T07:34:33.397248","MEAN_MOTION":13.20774243,"ECCENTRICITY":0.0002199,"INCLINATION":87.9187,"RA_OF_ASC_NODE":277.4031,"ARG_OF_PERICENTER":93.9799,"MEAN_ANOMALY":266.1586,"EPHEMERIS_TYPE":0,"CLASSIFICATION_TYPE":"U","NORAD_CAT_ID":49289,"ELEMENT_SET_NO":999,"REV_AT_EPOCH":22834,"BSTAR":5.8068e-05,"MEAN_MOTION_DOT":3.7e-07,"MEAN_MOTION_DDOT":0.0},{"OBJECT_NAME":"ONEWEB-0364","OBJECT_ID":"2021-090M","EPOCH":"2026-06-03T06:19:23.694816","MEAN_MOTION":13.20770817,"ECCENTRICITY":0.0001985,"INCLINATION":87.9175,"RA_OF_ASC_NODE":277.2232,"ARG_OF_PERICENTER":98.8975,"MEAN_ANOMALY":261.2383,"EPHEMERIS_TYPE":0,"CLASSIFICATION_TYPE":"U","NORAD_CAT_ID":49290,"ELEMENT_SET_NO":999,"REV_AT_EPOCH":22960,"BSTAR":-0.00013414999999999998,"MEAN_MOTION_DOT":-4.2e-07,"MEAN_MOTION_DDOT":0.0},{"OBJECT_NAME":"ONEWEB-0365","OBJECT_ID":"2021-090N","EPOCH":"2026-06-02T07:50:19.149792","MEAN_MOTION":13.1972681,"ECCENTRICITY":0.0001692,"INCLINATION":87.9167,"RA_OF_ASC_NODE":307.9273,"ARG_OF_PERICENTER":94.9979,"MEAN_ANOMALY":265.1347,"EPHEMERIS_TYPE":0,"CLASSIFICATION_TYPE":"U","NORAD_CAT_ID":49291,"ELEMENT_SET_NO":999,"REV_AT_EPOCH":22446,"BSTAR":-5.3481000000000005e-05,"MEAN_MOTION_DOT":-8e-08,"MEAN_MOTION_DDOT":0.0},{"OBJECT_NAME":"ONEWEB-0366","OBJECT_ID":"2021-090P","EPOCH":"2026-06-02T19:42:37.798848","MEAN_MOTION":13.14501275,"ECCENTRICITY":0.0001927,"INCLINATION":87.8947,"RA_OF_ASC_NODE":292.5705,"ARG_OF_PERICENTER":99.6077,"MEAN_ANOMALY":260.5271,"EPHEMERIS_TYPE":0,"CLASSIFICATION_TYPE":"U","NORAD_CAT_ID":49292,"ELEMENT_SET_NO":999,"REV_AT_EPOCH":22567,"BSTAR":0.0002789,"MEAN_MOTION_DOT":1.16e-06,"MEAN_MOTION_DDOT":0.0},{"OBJECT_NAME":"ONEWEB-0367","OBJECT_ID":"2021-090Q","EPOCH":"2026-06-02T18:27:52.112160","MEAN_MOTION":13.20779617,"ECCENTRICITY":7.91e-05,"INCLINATION":87.915,"RA_OF_ASC_NODE":277.3104,"ARG_OF_PERICENTER":71.6424,"MEAN_ANOMALY":288.4796,"EPHEMERIS_TYPE":0,"CLASSIFICATION_TYPE":"U","NORAD_CAT_ID":49293,"ELEMENT_SET_NO":999,"REV_AT_EPOCH":22792,"BSTAR":-0.00082858,"MEAN_MOTION_DOT":-3.24e-06,"MEAN_MOTION_DDOT":0.0},{"OBJECT_NAME":"ONEWEB-0368","OBJECT_ID":"2021-090R","EPOCH":"2026-06-02T19:39:24.096096","MEAN_MOTION":13.20784456,"ECCENTRICITY":0.0002744,"INCLINATION":87.9185,"RA_OF_ASC_NODE":277.3166,"ARG_OF_PERICENTER":69.0402,"MEAN_ANOMALY":291.1025,"EPHEMERIS_TYPE":0,"CLASSIFICATION_TYPE":"U","NORAD_CAT_ID":49294,"ELEMENT_SET_NO":999,"REV_AT_EPOCH":22908,"BSTAR":0.0041778,"MEAN_MOTION_DOT":1.712e-05,"MEAN_MOTION_DDOT":0.0},{"OBJECT_NAME":"ONEWEB-0369","OBJECT_ID":"2021-090S","EPOCH":"2026-06-01T11:42:33.727104","MEAN_MOTION":13.19726638,"ECCENTRICITY":0.0001756,"INCLINATION":87.9154,"RA_OF_ASC_NODE":308.1035,"ARG_OF_PERICENTER":92.9233,"MEAN_ANOMALY":267.2101,"EPHEMERIS_TYPE":0,"CLASSIFICATION_TYPE":"U","NORAD_CAT_ID":49295,"ELEMENT_SET_NO":999,"REV_AT_EPOCH":22434,"BSTAR":-0.00014731,"MEAN_MOTION_DOT":-4.6e-07,"MEAN_MOTION_DDOT":0.0},{"OBJECT_NAME":"ONEWEB-0370","OBJECT_ID":"2021-090T","EPOCH":"2026-06-02T18:41:12.850080","MEAN_MOTION":13.20773621,"ECCENTRICITY":0.0001993,"INCLINATION":87.9179,"RA_OF_ASC_NODE":277.3128,"ARG_OF_PERICENTER":107.7237,"MEAN_ANOMALY":252.4114,"EPHEMERIS_TYPE":0,"CLASSIFICATION_TYPE":"U","NORAD_CAT_ID":49296,"ELEMENT_SET_NO":999,"REV_AT_EPOCH":22796,"BSTAR":0.00014932999999999998,"MEAN_MOTION_DOT":7.4e-07,"MEAN_MOTION_DDOT":0.0},{"OBJECT_NAME":"ONEWEB-0371","OBJECT_ID":"2021-090U","EPOCH":"2026-06-02T18:49:55.035264","MEAN_MOTION":13.19726889,"ECCENTRICITY":0.0001738,"INCLINATION":87.9165,"RA_OF_ASC_NODE":307.8361,"ARG_OF_PERICENTER":97.708,"MEAN_ANOMALY":262.425,"EPHEMERIS_TYPE":0,"CLASSIFICATION_TYPE":"U","NORAD_CAT_ID":49297,"ELEMENT_SET_NO":999,"REV_AT_EPOCH":22455,"BSTAR":-7.037e-05,"MEAN_MOTION_DOT":-1.5e-07,"MEAN_MOTION_DDOT":0.0}]