ONEWEB-0353             
1 49282U 21090D   26153.82444808  .00000121  00000+0  29298-3 0  9998
2 49282  87.8955 292.5676 0001658  93.2829 266.8490 13.14502367225690
ONEWEB-0356             
1 49283U 21090E   26153.83251710  .00000050  00000+0  91681-4 0  9995
2 49283  87.9187 277.2950 0002471  84.2758 275.8657 13.20772644227937
ONEWEB-0358             
1 49284U 21090F   26153.78619492 -.00000034  00000+0 -11434-3 0  9996
2 49284  87.9186 277.3087 0002147 101.8443 258.2931 13.20769981228656
ONEWEB-0359             
1 49285U 21090G   26153.78369107 -.00000079  00000+0 -22580-3 0  9995
2 49285  87.9188 277.3047 0002171 104.5158 255.6216 13.20772350228634
ONEWEB-0360             
1 49286U 21090H   26153.77357441 -.00000061  00000+0 -18272-3 0  9997
2 49286  87.9187 277.3131 0002020 102.6617 257.4743 13.20772754227946
ONEWEB-0361             
1 49287U 21090J   26153.83080942  .00000087  00000+0  18200-3 0  9991
2 49287  87.9178 277.3002 0002028  91.6954 268.4411 13.20769738228407
ONEWEB-0362             
1 49288U 21090K   26152.48314143  .00000000  00000+0 -32564-4 0  9991
2 49288  87.9156 308.1082 0001639 102.8338 257.2978 13.19727273224847
ONEWEB-0363             
1 49289U 21090L   26153.31566432  .00000037  00000+0  58068-4 0  9991
2 49289  87.9187 277.4031 0002199  93.9799 266.1586 13.20774243228341
ONEWEB-0364             
1 49290U 21090M   26154.26346869 -.00000042  00000+0 -13415-3 0  9992
2 49290  87.9175 277.2232 0001985  98.8975 261.2383 13.20770817229607
ONEWEB-0365             
1 49291U 21090N   26153.32661053 -.00000008  00000+0 -53481-4 0  9994
2 49291  87.9167 307.9273 0001692  94.9979 265.1347 13.19726810224465
ONEWEB-0366             
1 49292U 21090P   26153.82127082  .00000116  00000+0  27890-3 0  9991
2 49292  87.8947 292.5705 0001927  99.6077 260.5271 13.14501275225672
ONEWEB-0367             
1 49293U 21090Q   26153.76935315 -.00000324  00000+0 -82858-3 0  9999
2 49293  87.9150 277.3104 0000791  71.6424 288.4796 13.20779617227923
ONEWEB-0368             
1 49294U 21090R   26153.81902889  .00001712  00000+0  41778-2 0  9991
2 49294  87.9185 277.3166 0002744  69.0402 291.1025 13.20784456229089
ONEWEB-0369             
1 49295U 21090S   26152.48789036 -.00000046  00000+0 -14731-3 0  9992
2 49295  87.9154 308.1035 0001756  92.9233 267.2101 13.19726638224342
ONEWEB-0370             
1 49296U 21090T   26153.77862095  .00000074  00000+0  14933-3 0  9996
2 49296  87.9179 277.3128 0001993 107.7237 252.4114 13.20773621227969
ONEWEB-0371             
1 49297U 21090U   26153.78466476 -.00000015  00000+0 -70370-4 0  9996
2 49297  87.9165 307.8361 0001738  97.7080 262.4250 13.19726889224550
